{"type": "FeatureCollection", "features": [ {"type": "Feature", "properties": {"norad_id": 45807, "name": "BEIDOU-3 G3 (C61)", "group": "gnss", "lat": 0.4198565249670416, "lon": 78.0258973823768, "alt_km": 35773.83143309077, "timestamp": "2025-12-22T15:43:49.247041+00:00", "meta": {"OBJECT_NAME": "BEIDOU-3 G3 (C61)", "OBJECT_ID": "2020-040A", "EPOCH": "2025-12-22T06:50:21.967872", "MEAN_MOTION": 1.00269404, "ECCENTRICITY": 0.00065322, "INCLINATION": 2.013, "RA_OF_ASC_NODE": 66.6638, "ARG_OF_PERICENTER": 309.3195, "MEAN_ANOMALY": 288.2645, "EPHEMERIS_TYPE": 0, "CLASSIFICATION_TYPE": "U", "NORAD_CAT_ID": 45807, "ELEMENT_SET_NO": 999, "REV_AT_EPOCH": 2029, "BSTAR": 0, "MEAN_MOTION_DOT": -3.33e-06, "MEAN_MOTION_DDOT": 0}, "tle": {"line1": "1 45807U 20040A   25356.28497648 -.00000333  00000+0  00000+0 0  9997", "line2": "2 45807   2.0130  66.6638 0006532 309.3195 288.2645  1.00269404 20297"}}, "geometry": {"type": "Point", "coordinates": [78.0258973823768, 0.4198565249670416]}}, {"type": "Feature", "properties": {"norad_id": 45854, "name": "GPS BIII-3  (PRN 23)", "group": "gnss", "lat": -43.36958138700431, "lon": -2.7973208279238317, "alt_km": 20216.556965093234, "timestamp": "2025-12-22T15:43:49.247056+00:00", "meta": {"OBJECT_NAME": "GPS BIII-3  (PRN 23)", "OBJECT_ID": "2020-041A", "EPOCH": "2025-12-20T05:44:36.632832", "MEAN_MOTION": 2.00561934, "ECCENTRICITY": 0.00606224, "INCLINATION": 56.5518, "RA_OF_ASC_NODE": 35.8938, "ARG_OF_PERICENTER": 203.675, "MEAN_ANOMALY": 155.7759, "EPHEMERIS_TYPE": 0, "CLASSIFICATION_TYPE": "U", "NORAD_CAT_ID": 45854, "ELEMENT_SET_NO": 999, "REV_AT_EPOCH": 4044, "BSTAR": 0, "MEAN_MOTION_DOT": -5.8e-07, "MEAN_MOTION_DDOT": 0}, "tle": {"line1": "1 45854U 20041A   25354.23931288 -.00000058  00000+0  00000+0 0  9990", "line2": "2 45854  56.5518  35.8938 0060622 203.6750 155.7759  2.00561934 40444"}}, "geometry": {"type": "Point", "coordinates": [-2.7973208279238317, -43.36958138700431]}}, {"type": "Feature", "properties": {"norad_id": 46114, "name": "GALAXY 30 (WAAS/PRN 135)", "group": "gnss", "lat": -0.010251009897519415, "lon": -157.61036357652046, "alt_km": 35782.87523491669, "timestamp": "2025-12-22T15:43:49.247069+00:00", "meta": {"OBJECT_NAME": "GALAXY 30 (WAAS/PRN 135)", "OBJECT_ID": "2020-056C", "EPOCH": "2025-12-22T05:43:20.885088", "MEAN_MOTION": 1.00270047, "ECCENTRICITY": 0.00020003, "INCLINATION": 0.0177, "RA_OF_ASC_NODE": 10.447, "ARG_OF_PERICENTER": 256.2295, "MEAN_ANOMALY": 145.2144, "EPHEMERIS_TYPE": 0, "CLASSIFICATION_TYPE": "U", "NORAD_CAT_ID": 46114, "ELEMENT_SET_NO": 999, "REV_AT_EPOCH": 1951, "BSTAR": 0, "MEAN_MOTION_DOT": 5.9e-07, "MEAN_MOTION_DDOT": 0}, "tle": {"line1": "1 46114U 20056C   25356.23843617  .00000059  00000+0  00000+0 0  9996", "line2": "2 46114   0.0177  10.4470 0002000 256.2295 145.2144  1.00270047 19510"}}, "geometry": {"type": "Point", "coordinates": [-157.61036357652046, -0.010251009897519415]}}, {"type": "Feature", "properties": {"norad_id": 46805, "name": "COSMOS 2547 (705K)", "group": "gnss", "lat": 52.95171209915923, "lon": -20.67186258415167, "alt_km": 19129.33121775448, "timestamp": "2025-12-22T15:43:49.247081+00:00", "meta": {"OBJECT_NAME": "COSMOS 2547 (705K)", "OBJECT_ID": "2020-075A", "EPOCH": "2025-12-22T00:46:38.571168", "MEAN_MOTION": 2.13100252, "ECCENTRICITY": 0.000611, "INCLINATION": 64.5967, "RA_OF_ASC_NODE": 198.3861, "ARG_OF_PERICENTER": 227.6651, "MEAN_ANOMALY": 132.3515, "EPHEMERIS_TYPE": 0, "CLASSIFICATION_TYPE": "U", "NORAD_CAT_ID": 46805, "ELEMENT_SET_NO": 999, "REV_AT_EPOCH": 4013, "BSTAR": 0, "MEAN_MOTION_DOT": 9.6e-07, "MEAN_MOTION_DDOT": 0}, "tle": {"line1": "1 46805U 20075A   25356.03239087  .00000096  00000+0  00000+0 0  9993", "line2": "2 46805  64.5967 198.3861 0006110 227.6651 132.3515  2.13100252 40139"}}, "geometry": {"type": "Point", "coordinates": [-20.67186258415167, 52.95171209915923]}}, {"type": "Feature", "properties": {"norad_id": 46826, "name": "GPS BIII-4  (PRN 14)", "group": "gnss", "lat": -53.585360864063645, "lon": 137.88650687925985, "alt_km": 20134.14844492454, "timestamp": "2025-12-22T15:43:49.247093+00:00", "meta": {"OBJECT_NAME": "GPS BIII-4  (PRN 14)", "OBJECT_ID": "2020-078A", "EPOCH": "2025-12-16T01:06:13.902336", "MEAN_MOTION": 2.00566891, "ECCENTRICITY": 0.0064755, "INCLINATION": 54.0145, "RA_OF_ASC_NODE": 218.2068, "ARG_OF_PERICENTER": 203.3828, "MEAN_ANOMALY": 339.3936, "EPHEMERIS_TYPE": 0, "CLASSIFICATION_TYPE": "U", "NORAD_CAT_ID": 46826, "ELEMENT_SET_NO": 999, "REV_AT_EPOCH": 3783, "BSTAR": 0, "MEAN_MOTION_DOT": 6.7e-07, "MEAN_MOTION_DDOT": 0}, "tle": {"line1": "1 46826U 20078A   25350.04599424  .00000067  00000+0  00000+0 0  9996", "line2": "2 46826  54.0145 218.2068 0064755 203.3828 339.3936  2.00566891 37831"}}, "geometry": {"type": "Point", "coordinates": [137.88650687925985, -53.585360864063645]}}, {"type": "Feature", "properties": {"norad_id": 48859, "name": "GPS BIII-5  (PRN 11)", "group": "gnss", "lat": 54.039960020668836, "lon": 86.49230998157624, "alt_km": 20222.216544709554, "timestamp": "2025-12-22T15:43:49.247104+00:00", "meta": {"OBJECT_NAME": "GPS BIII-5  (PRN 11)", "OBJECT_ID": "2021-054A", "EPOCH": "2025-12-08T04:14:32.423424", "MEAN_MOTION": 2.00553627, "ECCENTRICITY": 0.0024678, "INCLINATION": 55.2581, "RA_OF_ASC_NODE": 340.1367, "ARG_OF_PERICENTER": 233.3993, "MEAN_ANOMALY": 212.8594, "EPHEMERIS_TYPE": 0, "CLASSIFICATION_TYPE": "U", "NORAD_CAT_ID": 48859, "ELEMENT_SET_NO": 999, "REV_AT_EPOCH": 3292, "BSTAR": 0, "MEAN_MOTION_DOT": -8.6e-07, "MEAN_MOTION_DDOT": 0}, "tle": {"line1": "1 48859U 21054A   25342.17676416 -.00000086  00000+0  00000+0 0  9993", "line2": "2 48859  55.2581 340.1367 0024678 233.3993 212.8594  2.00553627 32922"}}, "geometry": {"type": "Point", "coordinates": [86.49230998157624, 54.039960020668836]}}, {"type": "Feature", "properties": {"norad_id": 49336, "name": "QZS-1R (QZSS/PRN 196)", "group": "gnss", "lat": 16.0840603397705, "lon": 104.60188726090378, "alt_km": 36982.13104054834, "timestamp": "2025-12-22T15:43:49.247115+00:00", "meta": {"OBJECT_NAME": "QZS-1R (QZSS/PRN 196)", "OBJECT_ID": "2021-096A", "EPOCH": "2025-12-21T13:52:43.837824", "MEAN_MOTION": 1.00254729, "ECCENTRICITY": 0.0756914, "INCLINATION": 37.0948, "RA_OF_ASC_NODE": 82.2293, "ARG_OF_PERICENTER": 271.4815, "MEAN_ANOMALY": 79.0907, "EPHEMERIS_TYPE": 0, "CLASSIFICATION_TYPE": "U", "NORAD_CAT_ID": 49336, "ELEMENT_SET_NO": 999, "REV_AT_EPOCH": 1522, "BSTAR": 0, "MEAN_MOTION_DOT": -2.54e-06, "MEAN_MOTION_DDOT": 0}, "tle": {"line1": "1 49336U 21096A   25355.57828516 -.00000254  00000+0  00000+0 0  9995", "line2": "2 49336  37.0948  82.2293 0756914 271.4815  79.0907  1.00254729 15226"}}, "geometry": {"type": "Point", "coordinates": [104.60188726090378, 16.0840603397705]}}, {"type": "Feature", "properties": {"norad_id": 49809, "name": "GSAT0223 (GALILEO 27)", "group": "gnss", "lat": 33.8448391791582, "lon": 140.8284061990977, "alt_km": 23223.651361904725, "timestamp": "2025-12-22T15:43:49.247126+00:00", "meta": {"OBJECT_NAME": "GSAT0223 (GALILEO 27)", "OBJECT_ID": "2021-116A", "EPOCH": "2025-12-19T11:56:47.637312", "MEAN_MOTION": 1.7047609, "ECCENTRICITY": 0.00044147, "INCLINATION": 57.2179, "RA_OF_ASC_NODE": 346.5305, "ARG_OF_PERICENTER": 254.6091, "MEAN_ANOMALY": 105.9777, "EPHEMERIS_TYPE": 0, "CLASSIFICATION_TYPE": "U", "NORAD_CAT_ID": 49809, "ELEMENT_SET_NO": 999, "REV_AT_EPOCH": 2512, "BSTAR": 0, "MEAN_MOTION_DOT": -7.2e-07, "MEAN_MOTION_DDOT": 0}, "tle": {"line1": "1 49809U 21116A   25353.49777358 -.00000072  00000+0  00000+0 0  9997", "line2": "2 49809  57.2179 346.5305 0004414 254.6091 105.9777  1.70476090 25129"}}, "geometry": {"type": "Point", "coordinates": [140.8284061990977, 33.8448391791582]}}, {"type": "Feature", "properties": {"norad_id": 49810, "name": "GSAT0224 (GALILEO 28)", "group": "gnss", "lat": -52.68995262683941, "lon": -135.8254992428872, "alt_km": 23216.751388962497, "timestamp": "2025-12-22T15:43:49.247140+00:00", "meta": {"OBJECT_NAME": "GSAT0224 (GALILEO 28)", "OBJECT_ID": "2021-116B", "EPOCH": "2025-12-20T04:43:34.979232", "MEAN_MOTION": 1.70476091, "ECCENTRICITY": 0.0003747, "INCLINATION": 57.2188, "RA_OF_ASC_NODE": 346.5104, "ARG_OF_PERICENTER": 259.7047, "MEAN_ANOMALY": 282.5653, "EPHEMERIS_TYPE": 0, "CLASSIFICATION_TYPE": "U", "NORAD_CAT_ID": 49810, "ELEMENT_SET_NO": 999, "REV_AT_EPOCH": 2515, "BSTAR": 0, "MEAN_MOTION_DOT": -7e-07, "MEAN_MOTION_DDOT": 0}, "tle": {"line1": "1 49810U 21116B   25354.19693263 -.00000070  00000+0  00000+0 0  9997", "line2": "2 49810  57.2188 346.5104 0003747 259.7047 282.5653  1.70476091 25152"}}, "geometry": {"type": "Point", "coordinates": [-135.8254992428872, -52.68995262683941]}}, {"type": "Feature", "properties": {"norad_id": 52984, "name": "COSMOS 2557 (706K)", "group": "gnss", "lat": -7.914121914350717, "lon": -43.13242381431229, "alt_km": 19121.138067492077, "timestamp": "2025-12-22T15:43:49.247154+00:00", "meta": {"OBJECT_NAME": "COSMOS 2557 (706K)", "OBJECT_ID": "2022-075A", "EPOCH": "2025-12-21T17:28:49.224000", "MEAN_MOTION": 2.13102032, "ECCENTRICITY": 0.00135441, "INCLINATION": 64.4048, "RA_OF_ASC_NODE": 320.7357, "ARG_OF_PERICENTER": 278.4426, "MEAN_ANOMALY": 81.3985, "EPHEMERIS_TYPE": 0, "CLASSIFICATION_TYPE": "U", "NORAD_CAT_ID": 52984, "ELEMENT_SET_NO": 999, "REV_AT_EPOCH": 2693, "BSTAR": 0, "MEAN_MOTION_DOT": -4.6e-07, "MEAN_MOTION_DDOT": 0}, "tle": {"line1": "1 52984U 22075A   25355.72834750 -.00000046  00000+0  00000+0 0  9999", "line2": "2 52984  64.4048 320.7357 0013544 278.4426  81.3985  2.13102032 26931"}}, "geometry": {"type": "Point", "coordinates": [-43.13242381431229, -7.914121914350717]}}]}